{"type":"FeatureCollection","features":[{"type": "Feature", "id": "99NxyF0gWMRL-UMCTNgU8m5x8_A=", "properties": {"ref": "VLC62V", "@spider": "dhl_esp_dpa", "addr:full": "C/ Ruzafa, 22, VALENCIA, 46004", "addr:city": "VALENCIA", "addr:postcode": "46004", "addr:country": "ES", "name": "DHL Express Service Point", "phones": {"Store": []}, "email": {"Customer Service": []}, "website": "http://www.dhl.es/es/express.html", "operatingHours": {"Store": {"Store": "Mo 09:30-20:30; Tu 09:30-20:30; We 09:30-20:30; Th 09:30-20:30; Fr 09:30-20:30; Sa 10:00-14:00; Sa 16:30-20:30"}}, "chain_id": "6807", "chain_name": "DHL"}, "geometry": {"type": "Point", "coordinates": [-0.3744, 39.4656]}},
{"type": "Feature", "id": "bXTOyZBbkuYfA-_RJdaLU1uWxC4=", "properties": {"ref": "VLC02V", "@spider": "dhl_esp_dpa", "addr:full": "C/ Salamanca, 48, VALENCIA, 46005", "addr:city": "VALENCIA", "addr:postcode": "46005", "addr:country": "ES", "name": "DHL Express Service Point", "phones": {"Store": ["963740033"]}, "email": {"Customer Service": []}, "website": "http://www.dhl.es/es/express.html", "operatingHours": {"Store": {"Store": "Mo 10:00-14:00; Mo 16:00-20:00; Tu 10:00-14:00; Tu 16:00-20:00; We 10:00-14:00; We 16:00-20:00; Th 10:00-14:00; Th 16:00-20:00; Fr 10:00-14:00; Fr 16:00-20:00"}}, "chain_id": "6807", "chain_name": "DHL"}, "geometry": {"type": "Point", "coordinates": [-0.363127, 39.464423]}},
{"type": "Feature", "id": "8o9dVVwKSeyDSoVXpLrQQWo7UjY=", "properties": {"ref": "VLC01V", "@spider": "dhl_esp_dpa", "addr:full": "Carrer Colon, 37, VALENCIA, 46004", "addr:city": "VALENCIA", "addr:postcode": "46004", "addr:country": "ES", "name": "DHL Express Service Point", "phones": {"Store": ["961239416"]}, "email": {"Customer Service": []}, "website": "http://www.dhl.es/es/express.html", "operatingHours": {"Store": {"Store": "Mo 09:30-19:30; Tu 09:30-19:30; We 09:30-19:30; Th 09:30-19:30; Fr 09:30-19:30"}}, "chain_id": "6807", "chain_name": "DHL"}, "geometry": {"type": "Point", "coordinates": [-0.37026, 39.47067]}},
{"type": "Feature", "id": "zicB7W_CS48Kk60AtTTkrONdHoA=", "properties": {"ref": "VLC0WV", "@spider": "dhl_esp_dpa", "addr:full": "Av. del Puerto, 18, VALENCIA, 46023", "addr:city": "VALENCIA", "addr:postcode": "46023", "addr:country": "ES", "name": "DHL Express Service Point", "phones": {"Store": []}, "email": {"Customer Service": []}, "website": "http://www.dhl.es/es/express.html", "operatingHours": {"Store": {"Store": "Mo 10:00-14:00; Mo 16:00-19:00; Tu 10:00-14:00; Tu 16:00-19:00; We 10:00-14:00; We 16:00-19:00; Th 10:00-14:00; Th 16:00-19:00; Fr 10:00-14:00; Fr 16:00-19:00"}}, "chain_id": "6807", "chain_name": "DHL"}, "geometry": {"type": "Point", "coordinates": [-0.35917, 39.46774]}},
{"type": "Feature", "id": "8XmH5RhioxdQ7rXc-WvEVwedzTA=", "properties": {"ref": "VLC00V", "@spider": "dhl_esp_dpa", "addr:full": "Carrer de la Pau, 25, VALENCIA, 46003", "addr:city": "VALENCIA", "addr:postcode": "46003", "addr:country": "ES", "name": "DHL Express Service Point", "phones": {"Store": ["963174051"]}, "email": {"Customer Service": []}, "website": "http://www.dhl.es/es/express.html", "operatingHours": {"Store": {"Store": "Mo 09:30-14:00; Mo 17:00-20:00; Tu 09:30-14:00; Tu 17:00-20:00; We 09:30-14:00; We 17:00-20:00; Th 09:30-14:00; Th 17:00-20:00; Fr 09:30-14:00; Fr 17:00-20:00"}}, "chain_id": "6807", "chain_name": "DHL"}, "geometry": {"type": "Point", "coordinates": [-0.371883, 39.473173]}},
{"type": "Feature", "id": "tLpRiJy0oFMHESolOChqR3pMLfQ=", "properties": {"ref": "VLC06V", "@spider": "dhl_esp_dpa", "addr:full": "C/ Matematico Marzal , 12, VALENCIA, 46007", "addr:city": "VALENCIA", "addr:postcode": "46007", "addr:country": "ES", "name": "DHL Express Service Point", "phones": {"Store": ["963416300"]}, "email": {"Customer Service": []}, "website": "http://www.dhl.es/es/express.html", "operatingHours": {"Store": {"Store": "Mo 10:30-21:00; Tu 10:30-21:00; We 10:30-21:00; Th 10:30-21:00; Fr 10:30-21:00; Sa 10:30-21:00; Su 11:00-20:00"}}, "chain_id": "6807", "chain_name": "DHL"}, "geometry": {"type": "Point", "coordinates": [-0.379931, 39.466661]}},
{"type": "Feature", "id": "K6X2Dy-hWREWV0Ow84SVMPGkg4A=", "properties": {"ref": "VLC07V", "@spider": "dhl_esp_dpa", "addr:full": "C/ Gran Via Ramon y Cajal, 49, VALENCIA, 46007", "addr:city": "VALENCIA", "addr:postcode": "46007", "addr:country": "ES", "name": "DHL Express Service Point", "phones": {"Store": ["963844997"]}, "email": {"Customer Service": []}, "website": "http://www.dhl.es/es/express.html", "operatingHours": {"Store": {"Store": "Mo 10:00-14:00; Mo 16:00-20:00; Tu 10:00-14:00; Tu 16:00-20:00; We 10:00-14:00; We 16:00-20:00; Th 10:00-14:00; Th 16:00-20:00; Fr 10:00-14:00; Fr 16:00-20:00; Sa 10:00-13:30"}}, "chain_id": "6807", "chain_name": "DHL"}, "geometry": {"type": "Point", "coordinates": [-0.383556, 39.467872]}},
{"type": "Feature", "id": "jODZMBUX5Jo_duSoGjTvmX-VKqg=", "properties": {"ref": "VLC10V", "@spider": "dhl_esp_dpa", "addr:full": "C/ Artes Graficas, 14, VALENCIA, 46010", "addr:city": "VALENCIA", "addr:postcode": "46010", "addr:country": "ES", "name": "DHL Express Service Point", "phones": {"Store": ["963891132"]}, "email": {"Customer Service": []}, "website": "http://www.dhl.es/es/express.html", "operatingHours": {"Store": {"Store": "Mo 10:00-14:00; Mo 16:00-19:00; Tu 10:00-14:00; Tu 16:00-19:00; We 10:00-14:00; We 16:00-19:00; Th 10:00-14:00; Th 16:00-19:00; Fr 10:00-14:00; Fr 16:00-19:00"}}, "chain_id": "6807", "chain_name": "DHL"}, "geometry": {"type": "Point", "coordinates": [-0.362248, 39.47657]}},
{"type": "Feature", "id": "6ziPQ1fsjM7ZeD-DcTRPpi5_KCw=", "properties": {"ref": "VLC05V", "@spider": "dhl_esp_dpa", "addr:full": "C/ Alcira, 4, VALENCIA, 46007", "addr:city": "VALENCIA", "addr:postcode": "46007", "addr:country": "ES", "name": "DHL Express Service Point", "phones": {"Store": ["963824135"]}, "email": {"Customer Service": []}, "website": "http://www.dhl.es/es/express.html", "operatingHours": {"Store": {"Store": "Mo 09:00-14:00; Mo 17:00-20:00; Tu 09:00-14:00; Tu 17:00-20:00; We 09:00-14:00; We 17:00-20:00; Th 09:00-14:00; Th 17:00-20:00; Fr 09:00-14:00; Fr 17:00-20:00; Sa 10:00-14:00"}}, "chain_id": "6807", "chain_name": "DHL"}, "geometry": {"type": "Point", "coordinates": [-0.385139, 39.467323]}},
{"type": "Feature", "id": "Lr-grz4-TCc4cJxqqstDuj4NAKA=", "properties": {"ref": "VLC1EV", "@spider": "dhl_esp_dpa", "addr:full": "Carrer de Joaquin Benlloch, 21, VALENCIA, 46006", "addr:city": "VALENCIA", "addr:postcode": "46006", "addr:country": "ES", "name": "DHL Express Service Point", "phones": {"Store": []}, "email": {"Customer Service": []}, "website": "http://www.dhl.es/es/express.html", "operatingHours": {"Store": {"Store": "Mo 09:30-14:00; Mo 17:00-20:30; Tu 09:30-14:00; Tu 17:00-20:30; We 09:30-14:00; We 17:00-20:30; Th 09:30-14:00; Th 17:00-20:30; Fr 09:30-14:00; Fr 17:00-20:30; Sa 09:30-14:00"}}, "chain_id": "6807", "chain_name": "DHL"}, "geometry": {"type": "Point", "coordinates": [-0.37688, 39.45434]}},
{"type": "Feature", "id": "BxiO6qYCXQoAOSXGsF4vkmIkmK0=", "properties": {"ref": "VLC04V", "@spider": "dhl_esp_dpa", "addr:full": "Avda. de Giorgeta, 24, VALENCIA, 46007", "addr:city": "VALENCIA", "addr:postcode": "46007", "addr:country": "ES", "name": "DHL Express Service Point", "phones": {"Store": ["963174051"]}, "email": {"Customer Service": []}, "website": "http://www.dhl.es/es/express.html", "operatingHours": {"Store": {"Store": "Mo 09:30-14:00; Mo 17:00-20:00; Tu 09:30-14:00; Tu 17:00-20:00; We 09:30-14:00; We 17:00-20:00; Th 09:30-14:00; Th 17:00-20:00; Fr 09:30-14:00; Fr 17:00-20:00"}}, "chain_id": "6807", "chain_name": "DHL"}, "geometry": {"type": "Point", "coordinates": [-0.38389, 39.45836]}},
{"type": "Feature", "id": "OuhqQwwppmmLXY8orDU_5KilIjk=", "properties": {"ref": "VLC17V", "@spider": "dhl_esp_dpa", "addr:full": "Avda. Blasco Ibanez, 72, VALENCIA, 46021", "addr:city": "VALENCIA", "addr:postcode": "46021", "addr:country": "ES", "name": "DHL Express Service Point", "phones": {"Store": ["960034020"]}, "email": {"Customer Service": []}, "website": "http://www.dhl.es/es/express.html", "operatingHours": {"Store": {"Store": "Mo 09:00-14:00; Tu 09:00-14:00; We 09:00-14:00; Th 09:00-14:00; Fr 09:00-14:00"}}, "chain_id": "6807", "chain_name": "DHL"}, "geometry": {"type": "Point", "coordinates": [-0.353011, 39.475085]}},
{"type": "Feature", "id": "VGSbomd5_s6IB_EA4N73CO6xI8o=", "properties": {"ref": "VLC72V", "@spider": "dhl_esp_dpa", "addr:full": "Avda. del Puerto, 121, VALENCIA, 46022", "addr:city": "VALENCIA", "addr:postcode": "46022", "addr:country": "ES", "name": "DHL Express Service Point", "phones": {"Store": ["963945400"]}, "email": {"Customer Service": []}, "website": "http://www.dhl.es/es/express.html", "operatingHours": {"Store": {"Store": "Mo 10:00-14:00; Mo 17:00-21:00; Tu 10:00-14:00; Tu 17:00-21:00; We 10:00-14:00; We 17:00-21:00; Th 10:00-14:00; Th 17:00-21:00; Fr 10:00-14:00; Fr 17:00-21:00; Sa 10:00-14:00; Sa 17:00-21:00; Su 10:00-14:00"}}, "chain_id": "6807", "chain_name": "DHL"}, "geometry": {"type": "Point", "coordinates": [-0.34768, 39.4647]}},
{"type": "Feature", "id": "6AtyClu5Oq85kTN21dg_USZ6PkE=", "properties": {"ref": "VLC0JV", "@spider": "dhl_esp_dpa", "addr:full": "C/ de Higinio Noja (Professor), 61, VALENCIA, 46023", "addr:city": "VALENCIA", "addr:postcode": "46023", "addr:country": "ES", "name": "DHL Express Service Point", "phones": {"Store": ["962071860"]}, "email": {"Customer Service": []}, "website": "http://www.dhl.es/es/express.html", "operatingHours": {"Store": {"Store": "Mo 10:30-14:00; Mo 17:00-20:00; Tu 10:30-14:00; Tu 17:00-20:00; We 10:30-14:00; We 17:00-20:00; Th 10:30-14:00; Th 17:00-20:00; Fr 10:30-14:00; Fr 17:00-20:00; Sa 10:30-14:00"}}, "chain_id": "6807", "chain_name": "DHL"}, "geometry": {"type": "Point", "coordinates": [-0.34752, 39.45908]}},
{"type": "Feature", "id": "fspwV-bjq8pCuTzC-c2hrTRgrVI=", "properties": {"ref": "VLC08V", "@spider": "dhl_esp_dpa", "addr:full": "C/ Constitucion, 9, VALENCIA, 46009", "addr:city": "VALENCIA", "addr:postcode": "46009", "addr:country": "ES", "name": "DHL Express Service Point", "phones": {"Store": ["963499006"]}, "email": {"Customer Service": []}, "website": "http://www.dhl.es/es/express.html", "operatingHours": {"Store": {"Store": "Mo 08:00-13:30; Mo 16:00-18:30; Tu 08:00-13:30; Tu 16:00-18:30; We 08:00-13:30; We 16:00-18:30; Th 08:00-13:30; Th 16:00-18:30; Fr 08:00-13:30; Fr 16:00-18:30"}}, "chain_id": "6807", "chain_name": "DHL"}, "geometry": {"type": "Point", "coordinates": [-0.378969, 39.483737]}},
{"type": "Feature", "id": "eJe0b8QKbwht0tuaEdw2B8DTK3g=", "properties": {"ref": "VLC1GV", "@spider": "dhl_esp_dpa", "addr:full": "C/ Linares, 20, VALENCIA, 46018", "addr:city": "VALENCIA", "addr:postcode": "46018", "addr:country": "ES", "name": "DHL Express Service Point", "phones": {"Store": ["960819867"]}, "email": {"Customer Service": []}, "website": "http://www.dhl.es/es/express.html", "operatingHours": {"Store": {"Store": "Mo 10:00-14:00; Mo 17:00-21:00; Tu 10:00-14:00; Tu 17:00-21:00; We 10:00-14:00; We 17:00-21:00; Th 10:00-14:00; Th 17:00-21:00; Fr 10:00-14:00; Fr 17:00-21:00; Sa 10:00-14:00"}}, "chain_id": "6807", "chain_name": "DHL"}, "geometry": {"type": "Point", "coordinates": [-0.39475, 39.46866]}},
{"type": "Feature", "id": "lDD9wi6L1K19Sol0BMiVrEpKqYQ=", "properties": {"ref": "VLC16V", "@spider": "dhl_esp_dpa", "addr:full": "C/ Dr. Vicente Zaragoza, 17, VALENCIA, 46020", "addr:city": "VALENCIA", "addr:postcode": "46020", "addr:country": "ES", "name": "DHL Express Service Point", "phones": {"Store": ["963174051"]}, "email": {"Customer Service": []}, "website": "http://www.dhl.es/es/express.html", "operatingHours": {"Store": {"Store": "Mo 10:00-14:00; Mo 17:00-20:30; Tu 10:00-14:00; Tu 17:00-20:30; We 10:00-14:00; We 17:00-20:30; Th 10:00-14:00; Th 17:00-20:30; Fr 10:00-14:00; Fr 17:00-20:30"}}, "chain_id": "6807", "chain_name": "DHL"}, "geometry": {"type": "Point", "coordinates": [-0.362623, 39.485026]}},
{"type": "Feature", "id": "u9Zeudg6_y99_ze_6NUaqau3RHw=", "properties": {"ref": "VLC14V", "@spider": "dhl_esp_dpa", "addr:full": "C/ Fontanares, 70, VALENCIA, 46018", "addr:city": "VALENCIA", "addr:postcode": "46018", "addr:country": "ES", "name": "DHL Express Service Point", "phones": {"Store": ["961108662"]}, "email": {"Customer Service": []}, "website": "http://www.dhl.es/es/express.html", "operatingHours": {"Store": {"Store": "Mo 10:00-14:00; Mo 17:00-19:30; Tu 10:00-14:00; Tu 17:00-19:30; We 10:00-14:00; We 17:00-19:30; Th 10:00-14:00; Th 17:00-19:30; Fr 10:00-14:00; Fr 17:00-19:30"}}, "chain_id": "6807", "chain_name": "DHL"}, "geometry": {"type": "Point", "coordinates": [-0.39664, 39.46248]}},
{"type": "Feature", "id": "H4bk_Oq6lg4SGkMsFRMEtT21uM0=", "properties": {"ref": "VLC0RV", "@spider": "dhl_esp_dpa", "addr:full": "Plaza de Holanda, 7, VALENCIA, 46017", "addr:city": "VALENCIA", "addr:postcode": "46017", "addr:country": "ES", "name": "DHL Express Service Point", "phones": {"Store": []}, "email": {"Customer Service": []}, "website": "http://www.dhl.es/es/express.html", "operatingHours": {"Store": {"Store": "Mo 09:00-13:30; Mo 17:00-20:30; Tu 09:00-13:30; Tu 17:00-20:30; We 09:00-13:30; We 17:00-20:30; Th 09:00-13:30; Th 17:00-20:30; Fr 09:00-13:30; Fr 17:00-20:30; Sa 09:00-14:00; Su 09:00-14:00"}}, "chain_id": "6807", "chain_name": "DHL"}, "geometry": {"type": "Point", "coordinates": [-0.38817, 39.44891]}},
{"type": "Feature", "id": "KIu5WsowcXmur_wR3OB4FiMvkIM=", "properties": {"ref": "VLC15V", "@spider": "dhl_esp_dpa", "addr:full": "C/ Marques De Montortal, 10, VALENCIA, 46019", "addr:city": "VALENCIA", "addr:postcode": "46019", "addr:country": "ES", "name": "DHL Express Service Point", "phones": {"Store": ["963232928"]}, "email": {"Customer Service": []}, "website": "http://www.dhl.es/es/express.html", "operatingHours": {"Store": {"Store": "Mo 09:00-14:00; Tu 09:00-14:00; We 09:00-14:00; Th 09:00-14:00; Fr 09:00-14:00"}}, "chain_id": "6807", "chain_name": "DHL"}, "geometry": {"type": "Point", "coordinates": [-0.374693, 39.492694]}},
{"type": "Feature", "id": "8mhghZLHyqBFDdYxXN7XhTCKW2M=", "properties": {"ref": "VLC0GV", "@spider": "dhl_esp_dpa", "addr:full": "Av. del Tamarindes, 33, VALENCIA, 46015", "addr:city": "VALENCIA", "addr:postcode": "46015", "addr:country": "ES", "name": "DHL Express Service Point", "phones": {"Store": ["963687870"]}, "email": {"Customer Service": []}, "website": "http://www.dhl.es/es/express.html", "operatingHours": {"Store": {"Store": "Mo 08:30-14:30; Mo 16:30-20:30; Tu 09:30-14:30; Tu 17:00-20:30; We 09:30-14:30; We 17:00-20:30; Th 08:30-14:30; Th 16:30-20:30; Fr 08:30-14:30; Fr 16:30-20:30; Sa 09:00-14:00; Su 09:00-14:00"}}, "chain_id": "6807", "chain_name": "DHL"}, "geometry": {"type": "Point", "coordinates": [-0.40243, 39.47875]}},
{"type": "Feature", "id": "xl1vDad0aNn2WhZ2FFtAjFSk_G8=", "properties": {"ref": "VLC60V", "@spider": "dhl_esp_dpa", "addr:full": "C/ De la Reina, 7, VALENCIA, 46011", "addr:city": "VALENCIA", "addr:postcode": "46011", "addr:country": "ES", "name": "DHL Express Service Point", "phones": {"Store": ["963174051"]}, "email": {"Customer Service": []}, "website": "http://www.dhl.es/es/express.html", "operatingHours": {"Store": {"Store": "Mo 10:00-14:00; Mo 17:00-20:30; Tu 10:00-14:00; Tu 17:00-20:30; We 10:00-14:00; We 17:00-20:30; Th 10:00-14:00; Th 17:00-20:30; Fr 10:00-14:00; Fr 17:00-20:30"}}, "chain_id": "6807", "chain_name": "DHL"}, "geometry": {"type": "Point", "coordinates": [-0.329489, 39.464285]}},
{"type": "Feature", "id": "WOWejTi3mNQeSKsCVpSNx7LcJQQ=", "properties": {"ref": "VLC52V", "@spider": "dhl_esp_dpa", "addr:full": "Camino Viejo De Xirivella, 4, MISLATA, 46920", "addr:city": "MISLATA", "addr:postcode": "46920", "addr:country": "ES", "name": "DHL Express Service Point", "phones": {"Store": ["960726230"]}, "email": {"Customer Service": []}, "website": "http://www.dhl.es/es/express.html", "operatingHours": {"Store": {"Store": "Mo 10:00-14:00; Tu 10:00-14:00; We 10:00-14:00; Th 10:00-14:00; Fr 10:00-14:00"}}, "chain_id": "6807", "chain_name": "DHL"}, "geometry": {"type": "Point", "coordinates": [-0.410009, 39.472658]}},
{"type": "Feature", "id": "2FOhRoy7dEPhLe0_xH-Tv-Zgopo=", "properties": {"ref": "VLC70V", "@spider": "dhl_esp_dpa", "addr:full": "Avda. Ausias March, 1, ALBORAYA, 46120", "addr:city": "ALBORAYA", "addr:postcode": "46120", "addr:country": "ES", "name": "DHL Express Service Point", "phones": {"Store": ["961858979"]}, "email": {"Customer Service": []}, "website": "http://www.dhl.es/es/express.html", "operatingHours": {"Store": {"Store": "Mo 09:00-14:00; Mo 17:30-20:30; Tu 09:00-14:00; Tu 17:30-20:30; We 09:00-14:00; We 17:30-20:30; Th 09:00-14:00; Th 17:30-20:30; Fr 09:00-14:00; Fr 17:30-20:30"}}, "chain_id": "6807", "chain_name": "DHL"}, "geometry": {"type": "Point", "coordinates": [-0.35268, 39.49671]}},
{"type": "Feature", "id": "MOmuMyHJz2mhr6tQEHjsc6Pb8Ms=", "properties": {"ref": "VLC73V", "@spider": "dhl_esp_dpa", "addr:full": "C/ Gran Canaria, 48, VALENCIA, 46011", "addr:city": "VALENCIA", "addr:postcode": "46011", "addr:country": "ES", "name": "DHL Express Service Point", "phones": {"Store": ["963715153"]}, "email": {"Customer Service": []}, "website": "http://www.dhl.es/es/express.html", "operatingHours": {"Store": {"Store": "Mo 10:30-13:30; Mo 16:30-20:00; Tu 10:30-13:30; Tu 16:30-20:00; We 10:30-13:30; We 16:30-20:00; Th 10:30-13:30; Th 16:30-20:00; Fr 10:30-13:30; Fr 16:30-20:00"}}, "chain_id": "6807", "chain_name": "DHL"}, "geometry": {"type": "Point", "coordinates": [-0.32871, 39.48409]}},
{"type": "Feature", "id": "3hhe3mqyBLKBvD-l4x00RaqCCGQ=", "properties": {"ref": "VLC12V", "@spider": "dhl_esp_dpa", "addr:full": "Plaza Alqueria Nova, 1, VALENCIA, 46014", "addr:city": "VALENCIA", "addr:postcode": "46014", "addr:country": "ES", "name": "DHL Express Service Point", "phones": {"Store": ["963830048"]}, "email": {"Customer Service": []}, "website": "http://www.dhl.es/es/express.html", "operatingHours": {"Store": {"Store": "Mo 10:00-13:30; Mo 17:00-20:30; Tu 10:00-13:30; Tu 17:00-20:30; We 10:00-13:30; We 17:00-20:30; Th 10:00-13:30; Th 17:00-20:30; Fr 10:00-13:30; Fr 17:00-20:30"}}, "chain_id": "6807", "chain_name": "DHL"}, "geometry": {"type": "Point", "coordinates": [-0.417482, 39.46842]}},
{"type": "Feature", "id": "A_PtboYESWst_ZW_YC9KDYwZVik=", "properties": {"ref": "VLC23V", "@spider": "dhl_esp_dpa", "addr:full": "C/ Vicente Canet, 7, VALENCIA, 46025", "addr:city": "VALENCIA", "addr:postcode": "46025", "addr:country": "ES", "name": "DHL Express Service Point", "phones": {"Store": ["963273580"]}, "email": {"Customer Service": []}, "website": "http://www.dhl.es/es/express.html", "operatingHours": {"Store": {"Store": "Mo 09:00-14:00; Mo 16:00-19:00; Tu 09:00-14:00; Tu 16:00-19:00; We 09:00-14:00; We 16:00-19:00; Th 09:00-14:00; Th 16:00-19:00; Fr 09:00-14:00; Fr 16:00-19:00"}}, "chain_id": "6807", "chain_name": "DHL"}, "geometry": {"type": "Point", "coordinates": [-0.39262, 39.5014]}},
{"type": "Feature", "id": "f5WR3te8FNq_Nny1Ia24A8jAlxo=", "properties": {"ref": "VLC51V", "@spider": "dhl_esp_dpa", "addr:full": "Avda. del Sur, 6, MISLATA, 46920", "addr:city": "MISLATA", "addr:postcode": "46920", "addr:country": "ES", "name": "DHL Express Service Point", "phones": {"Store": ["963137104"]}, "email": {"Customer Service": []}, "website": "http://www.dhl.es/es/express.html", "operatingHours": {"Store": {"Store": "Mo 09:30-14:00; Mo 16:30-20:00; Tu 09:30-14:00; Tu 16:30-20:00; We 09:30-14:00; We 16:30-20:00; Th 09:30-14:00; Th 16:30-20:00; Fr 09:30-14:00; Fr 16:30-20:00; Sa 10:15-13:45"}}, "chain_id": "6807", "chain_name": "DHL"}, "geometry": {"type": "Point", "coordinates": [-0.420782, 39.475043]}},
{"type": "Feature", "id": "uy99_AcDTFxmxBt1fhITXKZqYBY=", "properties": {"ref": "VLC1PV", "@spider": "dhl_esp_dpa", "addr:full": "Av. del Cami Nou, 82, XIRIVELLA, 46950", "addr:city": "XIRIVELLA", "addr:postcode": "46950", "addr:country": "ES", "name": "DHL Express Service Point", "phones": {"Store": ["963835264"]}, "email": {"Customer Service": []}, "website": "http://www.dhl.es/es/express.html", "operatingHours": {"Store": {"Store": "Mo 09:00-14:00; Tu 09:00-14:00; We 09:00-14:00; Th 09:00-14:00; Fr 09:00-14:00"}}, "chain_id": "6807", "chain_name": "DHL"}, "geometry": {"type": "Point", "coordinates": [-0.4299, 39.4661]}},
{"type": "Feature", "id": "9-rBlED-SAoGPXyyCWvpX0biwWY=", "properties": {"ref": "VLC83V", "@spider": "dhl_esp_dpa", "addr:full": "C/ El Palleter, 3, BENETUSSER, 46910", "addr:city": "BENETUSSER", "addr:postcode": "46910", "addr:country": "ES", "name": "DHL Express Service Point", "phones": {"Store": ["626975389"]}, "email": {"Customer Service": []}, "website": "http://www.dhl.es/es/express.html", "operatingHours": {"Store": {"Store": "Mo 15:30-19:00; Tu 09:30-14:00; Tu 15:30-19:00; We 09:30-14:00; We 15:30-19:00; Th 09:30-14:00; Th 15:30-19:00; Fr 09:30-14:00; Fr 15:30-19:00"}}, "chain_id": "6807", "chain_name": "DHL"}, "geometry": {"type": "Point", "coordinates": [-0.39696, 39.4214]}},
{"type": "Feature", "id": "Eo7nY1k-KlfRNzzR7Fv8qEwhBUU=", "properties": {"ref": "VLC1BV", "@spider": "dhl_esp_dpa", "addr:full": "C/ Valencia, 32, PICANYA, 46210", "addr:city": "PICANYA", "addr:postcode": "46210", "addr:country": "ES", "name": "DHL Express Service Point", "phones": {"Store": ["744680334"]}, "email": {"Customer Service": []}, "website": "http://www.dhl.es/es/express.html", "operatingHours": {"Store": {"Store": "Mo 09:00-14:00; Mo 16:00-19:30; Tu 09:00-14:00; Tu 16:00-19:30; We 09:00-14:00; We 16:00-19:30; Th 09:00-14:00; Th 16:00-19:30; Fr 09:00-14:00; Fr 16:00-19:30"}}, "chain_id": "6807", "chain_name": "DHL"}, "geometry": {"type": "Point", "coordinates": [-0.43191, 39.43875]}},
{"type": "Feature", "id": "8lGdhURh02C6W2mRy3juvgzVDJ0=", "properties": {"ref": "VLC80V", "@spider": "dhl_esp_dpa", "addr:full": "C/ San Eduardo, 23 Bajo 2, PAIPORTA, 46200", "addr:city": "PAIPORTA", "addr:postcode": "46200", "addr:country": "ES", "name": "DHL Express Service Point", "phones": {"Store": ["960170948"]}, "email": {"Customer Service": []}, "website": "http://www.dhl.es/es/express.html", "operatingHours": {"Store": {"Store": "Mo 09:15-13:30; Mo 16:30-19:30; Tu 09:15-13:30; Tu 16:30-19:30; We 09:15-13:30; We 16:30-19:30; Th 09:15-13:30; Th 16:30-19:30; Fr 09:15-13:30; Fr 16:30-19:30"}}, "chain_id": "6807", "chain_name": "DHL"}, "geometry": {"type": "Point", "coordinates": [-0.42337, 39.42805]}},
{"type": "Feature", "id": "9M9RSxyR3mQM3jB74fxB422DHFs=", "properties": {"ref": "VLC0ZV", "@spider": "dhl_esp_dpa", "addr:full": "Av. Ausias March, 29, BURJASSOT, 46100", "addr:city": "BURJASSOT", "addr:postcode": "46100", "addr:country": "ES", "name": "DHL Express Service Point", "phones": {"Store": ["963391330"]}, "email": {"Customer Service": []}, "website": "http://www.dhl.es/es/express.html", "operatingHours": {"Store": {"Store": "Mo 08:00-18:00; Tu 08:00-18:00; We 08:00-18:00; Th 08:00-18:00; Fr 09:00-13:00"}}, "chain_id": "6807", "chain_name": "DHL"}, "geometry": {"type": "Point", "coordinates": [-0.41142, 39.512002]}},
{"type": "Feature", "id": "i296FXuWnDfSbF5vM-TXzxQu6Es=", "properties": {"ref": "VLC1HV", "@spider": "dhl_esp_dpa", "addr:full": "Avd. Antic Regne de Valencia, 26, QUART DE POBLET, 46930", "addr:city": "QUART DE POBLET", "addr:postcode": "46930", "addr:country": "ES", "name": "DHL Express Service Point", "phones": {"Store": ["961297489"]}, "email": {"Customer Service": []}, "website": "http://www.dhl.es/es/express.html", "operatingHours": {"Store": {"Store": "Mo 10:00-13:30; Mo 16:30-19:30; Tu 10:00-13:30; Tu 16:30-19:30; We 10:00-13:30; We 16:30-19:30; Th 10:00-13:30; Th 16:30-19:30; Fr 10:00-13:30; Fr 16:30-19:30"}}, "chain_id": "6807", "chain_name": "DHL"}, "geometry": {"type": "Point", "coordinates": [-0.43904, 39.4836]}},
{"type": "Feature", "id": "QJf5QaHyMQLmrl2ExwYAKAEOgoc=", "properties": {"ref": "VLC87V", "@spider": "dhl_esp_dpa", "addr:full": "C/ Senyera, 23, PICANYA, 46210", "addr:city": "PICANYA", "addr:postcode": "46210", "addr:country": "ES", "name": "DHL Express Service Point", "phones": {"Store": ["961593292"]}, "email": {"Customer Service": []}, "website": "http://www.dhl.es/es/express.html", "operatingHours": {"Store": {"Store": "Mo 09:30-13:30; Mo 17:00-19:30; Tu 09:30-13:30; Tu 17:00-19:30; We 09:30-13:30; We 17:00-19:30; Th 09:30-13:30; Th 17:00-19:30; Fr 09:30-13:30"}}, "chain_id": "6807", "chain_name": "DHL"}, "geometry": {"type": "Point", "coordinates": [-0.43262, 39.43454]}},
{"type": "Feature", "id": "FG5a50XKCu5zu_CzXgp9BERU6G0=", "properties": {"ref": "VLC24V", "@spider": "dhl_esp_dpa", "addr:full": "C/ Hernan Cortes, 6, BURJASSOT, 46100", "addr:city": "BURJASSOT", "addr:postcode": "46100", "addr:country": "ES", "name": "DHL Express Service Point", "phones": {"Store": ["963632210"]}, "email": {"Customer Service": []}, "website": "http://www.dhl.es/es/express.html", "operatingHours": {"Store": {"Store": "Mo 09:00-14:00; Mo 16:00-18:00; Tu 09:00-14:00; Tu 16:00-18:00; We 09:00-14:00; We 16:00-18:00; Th 09:00-14:00; Th 16:00-18:00; Fr 09:00-14:00"}}, "chain_id": "6807", "chain_name": "DHL"}, "geometry": {"type": "Point", "coordinates": [-0.41845, 39.5111]}},
{"type": "Feature", "id": "cjxFN21T1ErFnUcKLzQNtfbPrUo=", "properties": {"ref": "VLC59V", "@spider": "dhl_esp_dpa", "addr:full": "Plaza Ejercito Espanol, 16, PATERNA, 46980", "addr:city": "PATERNA", "addr:postcode": "46980", "addr:country": "ES", "name": "DHL Express Service Point", "phones": {"Store": ["961371010"]}, "email": {"Customer Service": []}, "website": "http://www.dhl.es/es/express.html", "operatingHours": {"Store": {"Store": "Mo 10:00-14:00; Mo 17:00-20:00; Tu 10:00-14:00; Tu 17:00-20:00; We 10:00-14:00; We 17:00-20:00; Th 10:00-14:00; Th 17:00-20:00; Fr 10:00-14:00; Fr 17:00-20:00; Sa 10:30-13:30"}}, "chain_id": "6807", "chain_name": "DHL"}, "geometry": {"type": "Point", "coordinates": [-0.437312, 39.497873]}},
{"type": "Feature", "id": "mktUHXIZqAmvLbNXf4QKpet_IYE=", "properties": {"ref": "VLC36V", "@spider": "dhl_esp_dpa", "addr:full": "C/ Asturias, 3, CATARROJA, 46470", "addr:city": "CATARROJA", "addr:postcode": "46470", "addr:country": "ES", "name": "DHL Express Service Point", "phones": {"Store": ["961266967"]}, "email": {"Customer Service": []}, "website": "http://www.dhl.es/es/express.html", "operatingHours": {"Store": {"Store": "Mo 09:30-13:30; Tu 09:30-13:30; We 09:30-13:30; Th 09:30-13:30"}}, "chain_id": "6807", "chain_name": "DHL"}, "geometry": {"type": "Point", "coordinates": [-0.40477, 39.406912]}},
{"type": "Feature", "id": "SuOBzFOceWhjUVx7aHzypyXeSi8=", "properties": {"ref": "VLC93V", "@spider": "dhl_esp_dpa", "addr:full": "C/ Colon, 37, MELIANA, 46133", "addr:city": "MELIANA", "addr:postcode": "46133", "addr:country": "ES", "name": "DHL Express Service Point", "phones": {"Store": []}, "email": {"Customer Service": []}, "website": "http://www.dhl.es/es/express.html", "operatingHours": {"Store": {"Store": "Mo 10:00-14:00; Mo 17:00-20:00; Tu 10:00-14:00; Tu 17:00-20:00; We 10:00-14:00; We 17:00-20:00; Th 09:00-14:00; Th 17:00-20:00; Fr 09:00-14:00; Fr 17:00-20:00; Sa 10:00-14:00"}}, "chain_id": "6807", "chain_name": "DHL"}, "geometry": {"type": "Point", "coordinates": [-0.35086, 39.52873]}},
{"type": "Feature", "id": "6yZ9IIrXc5jI1ypQxWlys1_hOm4=", "properties": {"ref": "VLC54V", "@spider": "dhl_esp_dpa", "addr:full": "C/ Valencia, 52, MANISES, 46940", "addr:city": "MANISES", "addr:postcode": "46940", "addr:country": "ES", "name": "DHL Express Service Point", "phones": {"Store": ["961542840"]}, "email": {"Customer Service": []}, "website": "http://www.dhl.es/es/express.html", "operatingHours": {"Store": {"Store": "Mo 09:00-14:00; Mo 17:00-20:00; Tu 09:00-14:00; Tu 17:00-20:00; We 09:00-14:00; We 17:00-20:00; Th 09:00-14:00; Th 17:00-20:00; Fr 09:00-14:00; Fr 17:00-20:00; Sa 09:00-14:15"}}, "chain_id": "6807", "chain_name": "DHL"}, "geometry": {"type": "Point", "coordinates": [-0.450683, 39.486434]}},
{"type": "Feature", "id": "PN5or59kdtRPR7vzgw0PML-BbLc=", "properties": {"ref": "VLC88V", "@spider": "dhl_esp_dpa", "addr:full": "C/ Arzobispo Fabian y Fuero, 26, GODELLA, 46110", "addr:city": "GODELLA", "addr:postcode": "46110", "addr:country": "ES", "name": "DHL Express Service Point", "phones": {"Store": ["963631041"]}, "email": {"Customer Service": []}, "website": "http://www.dhl.es/es/express.html", "operatingHours": {"Store": {"Store": "Mo 10:00-14:00; Mo 17:00-20:00; Tu 10:00-14:00; Tu 17:00-20:00; We 10:00-14:00; We 17:00-20:00; Th 10:00-14:00; Th 17:00-20:00; Fr 10:00-14:00; Fr 17:00-20:00; Sa 10:00-20:00"}}, "chain_id": "6807", "chain_name": "DHL"}, "geometry": {"type": "Point", "coordinates": [-0.4145, 39.52207]}},
{"type": "Feature", "id": "Dwqmpg0O0BKk9bBf5S6TGdaTRto=", "properties": {"ref": "VLC64V", "@spider": "dhl_esp_dpa", "addr:full": "C/ Falaguera, 1, Bajo 4, PATERNA, 46980", "addr:city": "PATERNA", "addr:postcode": "46980", "addr:country": "ES", "name": "DHL Express Service Point", "phones": {"Store": ["960230838"]}, "email": {"Customer Service": []}, "website": "http://www.dhl.es/es/express.html", "operatingHours": {"Store": {"Store": "Mo 10:00-13:00; Mo 16:00-21:00; Tu 10:00-13:00; Tu 16:00-21:00; We 10:00-13:00; We 16:00-21:00; Th 10:00-13:00; Th 16:00-21:00; Fr 10:00-13:00; Fr 16:00-21:00; Sa 11:00-14:00"}}, "chain_id": "6807", "chain_name": "DHL"}, "geometry": {"type": "Point", "coordinates": [-0.432478, 39.513206]}},
{"type": "Feature", "id": "jGVfu_hCvHYhzRytEhw3GoLcNME=", "properties": {"ref": "VLC56V", "@spider": "dhl_esp_dpa", "addr:full": "Avda. Pais Valenciano, 23, ALAQUAS, 46970", "addr:city": "ALAQUAS", "addr:postcode": "46970", "addr:country": "ES", "name": "DHL Express Service Point", "phones": {"Store": ["961177877"]}, "email": {"Customer Service": []}, "website": "http://www.dhl.es/es/express.html", "operatingHours": {"Store": {"Store": "Mo 10:00-14:00; Tu 10:00-14:00; We 10:00-14:00; Th 10:00-14:00; Fr 10:00-14:00"}}, "chain_id": "6807", "chain_name": "DHL"}, "geometry": {"type": "Point", "coordinates": [-0.459279, 39.455669]}},
{"type": "Feature", "id": "d-3TXKoAKrU7peSHRsrd2OWnWNM=", "properties": {"ref": "VLC0YV", "@spider": "dhl_esp_dpa", "addr:full": "C/ Teodoro Llorente, 28, ALDAIA, 46960", "addr:city": "ALDAIA", "addr:postcode": "46960", "addr:country": "ES", "name": "DHL Express Service Point", "phones": {"Store": ["961512196"]}, "email": {"Customer Service": []}, "website": "http://www.dhl.es/es/express.html", "operatingHours": {"Store": {"Store": "Mo 09:00-14:00; Mo 17:00-20:30; Tu 09:00-14:00; Tu 17:00-20:30; We 09:00-14:00; We 17:00-20:30; Th 09:00-14:00; Th 17:00-20:30; Fr 09:00-14:00; Fr 17:00-20:30; Sa 09:00-14:00"}}, "chain_id": "6807", "chain_name": "DHL"}, "geometry": {"type": "Point", "coordinates": [-0.46063, 39.46855]}},
{"type": "Feature", "id": "XwKWsKj_dVQ9zB3Jc3Din9nKmSw=", "properties": {"ref": "VLC1IV", "@spider": "dhl_esp_dpa", "addr:full": "AV. de les Corts Valencianes, 38, ALBAL, 46470", "addr:city": "ALBAL", "addr:postcode": "46470", "addr:country": "ES", "name": "DHL Express Service Point", "phones": {"Store": ["961842001"]}, "email": {"Customer Service": []}, "website": "http://www.dhl.es/es/express.html", "operatingHours": {"Store": {"Store": "Mo 10:00-14:00; Mo 17:00-20:00; Tu 10:00-14:00; Tu 17:00-20:00; We 10:00-14:00; We 17:00-20:00; Th 10:00-14:00; Th 17:00-20:00; Fr 10:00-14:00"}}, "chain_id": "6807", "chain_name": "DHL"}, "geometry": {"type": "Point", "coordinates": [-0.41048, 39.39668]}},
{"type": "Feature", "id": "RruL8miED_Iaxtk1Smt4mwe6S64=", "properties": {"ref": "VLC1MV", "@spider": "dhl_esp_dpa", "addr:full": "C/ Jose Iturbi, 10, TORRENT, 46900", "addr:city": "TORRENT", "addr:postcode": "46900", "addr:country": "ES", "name": "DHL Express Service Point", "phones": {"Store": []}, "email": {"Customer Service": []}, "website": "http://www.dhl.es/es/express.html", "operatingHours": {"Store": {"Store": "Mo 08:30-14:00; Mo 17:00-21:00; Tu 08:30-14:30; We 08:30-14:30; Th 08:30-14:30; Fr 08:30-14:30"}}, "chain_id": "6807", "chain_name": "DHL"}, "geometry": {"type": "Point", "coordinates": [-0.46163, 39.43926]}},
{"type": "Feature", "id": "64gi60OFgRn0j-TsAPnXOvd5_O4=", "properties": {"ref": "VLC90V", "@spider": "dhl_esp_dpa", "addr:full": "Avda. Seminario, 4, MONCADA, 46113", "addr:city": "MONCADA", "addr:postcode": "46113", "addr:country": "ES", "name": "DHL Express Service Point", "phones": {"Store": ["961394500"]}, "email": {"Customer Service": []}, "website": "http://www.dhl.es/es/express.html", "operatingHours": {"Store": {"Store": "Mo 08:30-13:30; Mo 16:30-19:30; Tu 08:30-13:30; Tu 16:30-19:30; We 08:30-13:30; We 16:30-19:30; Th 08:30-13:30; Th 16:30-19:30; Fr 08:30-13:30; Fr 16:30-19:30"}}, "chain_id": "6807", "chain_name": "DHL"}, "geometry": {"type": "Point", "coordinates": [-0.38832, 39.54824]}},
{"type": "Feature", "id": "fqGCt8NCaiS2coVgXyZINM0Zgt0=", "properties": {"ref": "VLC47V", "@spider": "dhl_esp_dpa", "addr:full": "Avda. Al Vedat, 72, TORRENT, 46900", "addr:city": "TORRENT", "addr:postcode": "46900", "addr:country": "ES", "name": "DHL Express Service Point", "phones": {"Store": ["961180391"]}, "email": {"Customer Service": []}, "website": "http://www.dhl.es/es/express.html", "operatingHours": {"Store": {"Store": "Mo 09:30-13:30; Mo 16:30-19:30; Tu 09:30-13:30; Tu 16:30-19:30; We 09:30-13:30; We 16:30-19:30; Th 09:30-13:30; Th 16:30-19:30; Fr 09:30-13:30; Fr 16:30-19:30; Sa 09:30-13:30"}}, "chain_id": "6807", "chain_name": "DHL"}, "geometry": {"type": "Point", "coordinates": [-0.471375, 39.433096]}},
{"type": "Feature", "id": "qGtRVFN8DxOAXSOx0dH5t6czASQ=", "properties": {"ref": "VLC53V", "@spider": "dhl_esp_dpa", "addr:full": "Centro de Carga Aerea, AEROPUERTO DE MANISES, 46940", "addr:city": "AEROPUERTO DE MANISES", "addr:postcode": "46940", "addr:country": "ES", "name": "DHL Express Service Point", "phones": {"Store": ["961215495"]}, "email": {"Customer Service": []}, "website": "http://www.dhl.es/es/express.html", "operatingHours": {"Store": {"Store": "Mo 09:30-12:30; Mo 16:00-19:00; Tu 09:30-12:30; Tu 16:00-19:00; We 09:30-12:30; We 16:00-19:00; Th 09:30-12:30; Th 16:00-19:00; Fr 09:30-12:30; Fr 16:00-19:00"}}, "chain_id": "6807", "chain_name": "DHL"}, "geometry": {"type": "Point", "coordinates": [-0.4780256, 39.4892327]}},
{"type": "Feature", "id": "9WsU3rAq7BI6GZd2AEoPyvFYQIs=", "properties": {"ref": "VLC0VV", "@spider": "dhl_esp_dpa", "addr:full": "Av. Mayor 9, Bajo Derecha, MASSAMAGRELL, 46130", "addr:city": "MASSAMAGRELL", "addr:postcode": "46130", "addr:country": "ES", "name": "DHL Express Service Point", "phones": {"Store": []}, "email": {"Customer Service": []}, "website": "http://www.dhl.es/es/express.html", "operatingHours": {"Store": {"Store": "Mo 09:30-13:30; Mo 17:30-20:30; Tu 09:30-13:30; Tu 17:30-20:30; We 09:30-13:30; We 17:30-20:30; Th 09:30-13:30; Th 17:30-20:30; Fr 09:30-13:30; Fr 17:30-20:30; Sa 10:00-14:00"}}, "chain_id": "6807", "chain_name": "DHL"}, "geometry": {"type": "Point", "coordinates": [-0.33161, 39.57]}}]}